CCSDS_OMM_VERS = 2.0
CREATION_DATE  = 
ORIGINATOR     = 

OBJECT_NAME    = SL-3 R/B
OBJECT_ID      = 1988-032B
CENTER_NAME    = EARTH
REF_FRAME      = TEME
TIME_SYSTEM    = UTC
MEAN_ELEMENT_THEORY = SGP/SGP4

EPOCH          = 2026-03-28T05:32:46.125024
MEAN_MOTION    = 15.20107803
ECCENTRICITY   = .00262708
INCLINATION    = 97.5211
RA_OF_ASC_NODE = 70.4220
ARG_OF_PERICENTER = 165.3561
MEAN_ANOMALY   = 194.8441

EPHEMERIS_TYPE = 0
CLASSIFICATION_TYPE = U
NORAD_CAT_ID   = 19046
ELEMENT_SET_NO = 999
REV_AT_EPOCH   = 5492
BSTAR          = .2685058E-3
MEAN_MOTION_DOT = .5783E-4
MEAN_MOTION_DDOT = 0

CCSDS_OMM_VERS = 2.0
CREATION_DATE  = 
ORIGINATOR     = 

OBJECT_NAME    = SL-16 R/B
OBJECT_ID      = 1988-039B
CENTER_NAME    = EARTH
REF_FRAME      = TEME
TIME_SYSTEM    = UTC
MEAN_ELEMENT_THEORY = SGP/SGP4

EPOCH          = 2026-03-28T05:31:22.329120
MEAN_MOTION    = 14.19618810
ECCENTRICITY   = .00236375
INCLINATION    = 71.0166
RA_OF_ASC_NODE = 29.3423
ARG_OF_PERICENTER = 307.7783
MEAN_ANOMALY   = 52.1201

EPHEMERIS_TYPE = 0
CLASSIFICATION_TYPE = U
NORAD_CAT_ID   = 19120
ELEMENT_SET_NO = 999
REV_AT_EPOCH   = 96101
BSTAR          = .10599296E-3
MEAN_MOTION_DOT = .176E-5
MEAN_MOTION_DDOT = 0

CCSDS_OMM_VERS = 2.0
CREATION_DATE  = 
ORIGINATOR     = 

OBJECT_NAME    = COSMOS 1953
OBJECT_ID      = 1988-050A
CENTER_NAME    = EARTH
REF_FRAME      = TEME
TIME_SYSTEM    = UTC
MEAN_ELEMENT_THEORY = SGP/SGP4

EPOCH          = 2026-03-28T05:10:43.346208
MEAN_MOTION    = 15.28807385
ECCENTRICITY   = .00123943
INCLINATION    = 82.5083
RA_OF_ASC_NODE = 139.6116
ARG_OF_PERICENTER = 64.8657
MEAN_ANOMALY   = 295.3867

EPHEMERIS_TYPE = 0
CLASSIFICATION_TYPE = U
NORAD_CAT_ID   = 19210
ELEMENT_SET_NO = 999
REV_AT_EPOCH   = 4061
BSTAR          = .26575134E-3
MEAN_MOTION_DOT = .7488E-4
MEAN_MOTION_DDOT = 0

CCSDS_OMM_VERS = 2.0
CREATION_DATE  = 
ORIGINATOR     = 

OBJECT_NAME    = SL-8 R/B
OBJECT_ID      = 1988-053B
CENTER_NAME    = EARTH
REF_FRAME      = TEME
TIME_SYSTEM    = UTC
MEAN_ELEMENT_THEORY = SGP/SGP4

EPOCH          = 2026-03-28T07:07:33.736800
MEAN_MOTION    = 14.38928686
ECCENTRICITY   = .00214807
INCLINATION    = 74.0455
RA_OF_ASC_NODE = 78.1640
ARG_OF_PERICENTER = 254.9909
MEAN_ANOMALY   = 206.7632

EPHEMERIS_TYPE = 0
CLASSIFICATION_TYPE = U
NORAD_CAT_ID   = 19257
ELEMENT_SET_NO = 999
REV_AT_EPOCH   = 97927
BSTAR          = .12717692E-3
MEAN_MOTION_DOT = .366E-5
MEAN_MOTION_DDOT = 0

CCSDS_OMM_VERS = 2.0
CREATION_DATE  = 
ORIGINATOR     = 

OBJECT_NAME    = COSMOS 1975
OBJECT_ID      = 1988-093A
CENTER_NAME    = EARTH
REF_FRAME      = TEME
TIME_SYSTEM    = UTC
MEAN_ELEMENT_THEORY = SGP/SGP4

EPOCH          = 2026-03-28T02:59:06.775008
MEAN_MOTION    = 15.28312271
ECCENTRICITY   = .00133792
INCLINATION    = 82.5164
RA_OF_ASC_NODE = 99.1720
ARG_OF_PERICENTER = 104.4955
MEAN_ANOMALY   = 255.7770

EPHEMERIS_TYPE = 0
CLASSIFICATION_TYPE = U
NORAD_CAT_ID   = 19573
ELEMENT_SET_NO = 999
REV_AT_EPOCH   = 2222
BSTAR          = .248897E-3
MEAN_MOTION_DOT = .6913E-4
MEAN_MOTION_DDOT = 0

CCSDS_OMM_VERS = 2.0
CREATION_DATE  = 
ORIGINATOR     = 

OBJECT_NAME    = SL-14 R/B
OBJECT_ID      = 1988-093B
CENTER_NAME    = EARTH
REF_FRAME      = TEME
TIME_SYSTEM    = UTC
MEAN_ELEMENT_THEORY = SGP/SGP4

EPOCH          = 2026-03-28T06:28:18.441696
MEAN_MOTION    = 14.85678447
ECCENTRICITY   = .00201611
INCLINATION    = 82.5338
RA_OF_ASC_NODE = 24.6047
ARG_OF_PERICENTER = 341.0034
MEAN_ANOMALY   = 178.4618

EPHEMERIS_TYPE = 0
CLASSIFICATION_TYPE = U
NORAD_CAT_ID   = 19574
ELEMENT_SET_NO = 999
REV_AT_EPOCH   = 377
BSTAR          = .68751854E-4
MEAN_MOTION_DOT = .622E-5
MEAN_MOTION_DDOT = 0

CCSDS_OMM_VERS = 2.0
CREATION_DATE  = 
ORIGINATOR     = 

OBJECT_NAME    = SL-16 R/B
OBJECT_ID      = 1988-102B
CENTER_NAME    = EARTH
REF_FRAME      = TEME
TIME_SYSTEM    = UTC
MEAN_ELEMENT_THEORY = SGP/SGP4

EPOCH          = 2026-03-28T04:47:02.562144
MEAN_MOTION    = 14.16153627
ECCENTRICITY   = .00150843
INCLINATION    = 70.9971
RA_OF_ASC_NODE = 112.5510
ARG_OF_PERICENTER = 333.8286
MEAN_ANOMALY   = 26.2073

EPHEMERIS_TYPE = 0
CLASSIFICATION_TYPE = U
NORAD_CAT_ID   = 19650
ELEMENT_SET_NO = 999
REV_AT_EPOCH   = 92951
BSTAR          = -.59344307E-4
MEAN_MOTION_DOT = -.165E-5
MEAN_MOTION_DDOT = 0

CCSDS_OMM_VERS = 2.0
CREATION_DATE  = 
ORIGINATOR     = 

OBJECT_NAME    = INTERCOSMOS 24
OBJECT_ID      = 1989-080A
CENTER_NAME    = EARTH
REF_FRAME      = TEME
TIME_SYSTEM    = UTC
MEAN_ELEMENT_THEORY = SGP/SGP4

EPOCH          = 2026-03-28T07:26:37.347936
MEAN_MOTION    = 12.59581920
ECCENTRICITY   = .11868443
INCLINATION    = 82.6011
RA_OF_ASC_NODE = 92.2747
ARG_OF_PERICENTER = 249.5606
MEAN_ANOMALY   = 97.4325

EPHEMERIS_TYPE = 0
CLASSIFICATION_TYPE = U
NORAD_CAT_ID   = 20261
ELEMENT_SET_NO = 999
REV_AT_EPOCH   = 66914
BSTAR          = .16758796E-3
MEAN_MOTION_DOT = .566E-5
MEAN_MOTION_DDOT = 0

CCSDS_OMM_VERS = 2.0
CREATION_DATE  = 
ORIGINATOR     = 

OBJECT_NAME    = SL-14 R/B
OBJECT_ID      = 1989-080C
CENTER_NAME    = EARTH
REF_FRAME      = TEME
TIME_SYSTEM    = UTC
MEAN_ELEMENT_THEORY = SGP/SGP4

EPOCH          = 2026-03-28T06:43:26.422752
MEAN_MOTION    = 12.50511640
ECCENTRICITY   = .12308911
INCLINATION    = 82.5956
RA_OF_ASC_NODE = 161.2571
ARG_OF_PERICENTER = 142.2771
MEAN_ANOMALY   = 227.1457

EPHEMERIS_TYPE = 0
CLASSIFICATION_TYPE = U
NORAD_CAT_ID   = 20262
ELEMENT_SET_NO = 999
REV_AT_EPOCH   = 66247
BSTAR          = .10966065E-3
MEAN_MOTION_DOT = .392E-5
MEAN_MOTION_DDOT = 0

CCSDS_OMM_VERS = 2.0
CREATION_DATE  = 
ORIGINATOR     = 

OBJECT_NAME    = DELTA 1 R/B
OBJECT_ID      = 1989-089B
CENTER_NAME    = EARTH
REF_FRAME      = TEME
TIME_SYSTEM    = UTC
MEAN_ELEMENT_THEORY = SGP/SGP4

EPOCH          = 2026-03-28T04:12:19.090944
MEAN_MOTION    = 14.50677863
ECCENTRICITY   = .00705436
INCLINATION    = 97.0693
RA_OF_ASC_NODE = 291.6716
ARG_OF_PERICENTER = 64.7375
MEAN_ANOMALY   = 296.1112

EPHEMERIS_TYPE = 0
CLASSIFICATION_TYPE = U
NORAD_CAT_ID   = 20323
ELEMENT_SET_NO = 999
REV_AT_EPOCH   = 89841
BSTAR          = .94906204E-4
MEAN_MOTION_DOT = .35E-5
MEAN_MOTION_DDOT = 0

CCSDS_OMM_VERS = 2.0
CREATION_DATE  = 
ORIGINATOR     = 

OBJECT_NAME    = ARIANE 40 R/B
OBJECT_ID      = 1990-005H
CENTER_NAME    = EARTH
REF_FRAME      = TEME
TIME_SYSTEM    = UTC
MEAN_ELEMENT_THEORY = SGP/SGP4

EPOCH          = 2026-03-28T03:49:07.084992
MEAN_MOTION    = 14.39882225
ECCENTRICITY   = .00109477
INCLINATION    = 98.3045
RA_OF_ASC_NODE = 147.2668
ARG_OF_PERICENTER = 144.5330
MEAN_ANOMALY   = 215.6589

EPHEMERIS_TYPE = 0
CLASSIFICATION_TYPE = U
NORAD_CAT_ID   = 20443
ELEMENT_SET_NO = 999
REV_AT_EPOCH   = 89546
BSTAR          = .94140391E-4
MEAN_MOTION_DOT = .254E-5
MEAN_MOTION_DDOT = 0

CCSDS_OMM_VERS = 2.0
CREATION_DATE  = 
ORIGINATOR     = 

OBJECT_NAME    = DELTA 2 R/B(1)
OBJECT_ID      = 1990-008B
CENTER_NAME    = EARTH
REF_FRAME      = TEME
TIME_SYSTEM    = UTC
MEAN_ELEMENT_THEORY = SGP/SGP4

EPOCH          = 2026-03-27T23:13:48.810720
MEAN_MOTION    = 15.58359382
ECCENTRICITY   = .0078041
INCLINATION    = 35.6038
RA_OF_ASC_NODE = 54.6827
ARG_OF_PERICENTER = 69.6240
MEAN_ANOMALY   = 291.2859

EPHEMERIS_TYPE = 0
CLASSIFICATION_TYPE = U
NORAD_CAT_ID   = 20453
ELEMENT_SET_NO = 999
REV_AT_EPOCH   = 92898
BSTAR          = .76859E-3
MEAN_MOTION_DOT = .70325E-3
MEAN_MOTION_DDOT = 0

